#aV2024 12 24  0  0  0.00000000     288 DD+AD WGS84 FIT  NGA
## 2346 172800.00000000   300.00000000 60668 0.0000000000000
+   31     2  3  4  5  6  7  8  9 10 11 12 13 14 15 16 17 18
+         19 20 21 22 23 24 25 26 27 28 29 30 31 32  0  0  0
+          0  0  0  0  0  0  0  0  0  0  0  0  0  0  0  0  0
+          0  0  0  0  0  0  0  0  0  0  0  0  0  0  0  0  0
+          0  0  0  0  0  0  0  0  0  0  0  0  0  0  0  0  0
++         2  2  2  2  2  2  2  2  2  2  2  2  2  2  2  2  2
++         2  2  2  2  2  2  2  2  2  2  2  2  2  2  0  0  0
++         0  0  0  0  0  0  0  0  0  0  0  0  0  0  0  0  0
++         0  0  0  0  0  0  0  0  0  0  0  0  0  0  0  0  0
++         0  0  0  0  0  0  0  0  0  0  0  0  0  0  0  0  0
%c cc cc ccc ccc cccc cccc cccc cccc ccccc ccccc ccccc ccccc
%c cc cc ccc ccc cccc cccc cccc cccc ccccc ccccc ccccc ccccc
%f  0.0000000  0.000000000  0.00000000000  0.000000000000000
%f  0.0000000  0.000000000  0.00000000000  0.000000000000000
%i    0    0    0    0      0      0      0      0         0
%i    0    0    0    0      0      0      0      0         0
/*      NGA, ST. LOUIS,MO.                                  
/*   EPHEMERIS COMPUTED FROM 2 DAYS OF DATA                 
/*   EPOCHA v9 SMOOTHER                                     
/*   G2296 IERS2010 SATIGS SATAPC                           
*  2024 12 24 14  0  0.00000000
P  2 -22204.499663 -12246.455813   8997.737300   -284.475764                    
V  2  -6407.947653  -8745.966161 -28877.241689      0.089533                    
P  3 -14207.346092  -3317.188590  22026.004774    631.753452                    
V  3   8753.069927 -26907.820364   1689.477806      0.083709                    
P  4 -25260.252281  -1394.989581   8358.142821    501.022622                    
V  4   9977.229799  -4108.840729  29376.740001      0.060694                    
P  5   7592.466885  18269.608441 -17864.718568   -196.965274                    
V  5  -7202.932930  21176.755094  18841.512344     -0.011308                    
P  6   -258.620492  18659.236013  18924.673185    -68.133360                    
V  6 -16447.088733 -17303.210823  17017.080438     -0.281117                    
P  7 -17720.672012   1026.248250 -19358.556191    -14.656432                    
V  7 -16275.528717 -19861.636976  13036.000420      0.009893                    
P  8 -18666.696877  -8109.292559 -17427.204784    445.848387                    
V  8  20679.137419  -6884.966453 -18635.605491      0.085861                    
P  9 -25860.676631   6224.382385     -8.098859    500.506242                    
V  9   -548.929838  -2719.164455  31702.737178      0.157937                    
P 10  10185.596365 -24076.161526  -3277.098742   -247.572157                    
V 10    747.176985   4959.250476 -32198.093440     -0.156777                    
P 11  10442.549197  22689.026762   9159.805138   -752.713150                    
V 11  -9158.743616  -7424.519826  28899.202006      0.000924                    
P 12  13062.128914   7762.854608  21500.466237   -560.317845                    
V 12 -10664.837432  25872.156945  -2778.865381     -0.023058                    
P 13  10080.604600  13527.008396 -20807.284413    691.114201                    
V 13 -25690.163907   2392.560422 -10781.410269      0.013198                    
P 14 -12947.075248  21968.957169  -6931.188985    566.539552                    
V 14   -241.925607  -9548.653787 -29851.161608      0.074894                    
P 15  19596.205596   6141.391381 -17444.086895    243.405738                    
V 15 -19058.159380   9391.213265 -18524.762665      0.045119                    
P 16  -2132.213449 -21849.446948 -14974.100352    -95.213461                    
V 16   9314.510253 -16234.783251  23352.073183      0.095226                    
P 17 -17800.472033  13281.010375  15127.666628    505.368072                    
V 17 -18440.139906   1102.725900 -23104.930993     -0.164758                    
P 18  15849.333737  -3540.515115 -21030.758879   -659.792041                    
V 18  17049.868491  20539.103132   9156.838027      0.007305                    
P 19  -7486.266370  14982.503591  20365.941014    577.746886                    
V 19 -26253.965495   1636.464049 -11204.898978      0.047088                    
P 20   1750.108113  25533.434663  -7273.926872    367.630396                    
V 20  -3904.149897   8881.147087  29750.115945     -0.003090                    
P 21 -21164.536417 -16870.997837   2713.582258     98.047695                    
V 21   -874.089188  -3303.229917 -30795.298472      0.023654                    
P 22  -9416.965566  24985.697643   1631.839996    -88.347230                    
V 22  -2982.280700    456.305616 -31445.079914     -0.023101                    
P 23  15349.684509 -14542.634356 -15883.620489    389.999720                    
V 23  -4182.982727  19926.726369 -22449.789549      0.076370                    
P 24  21876.043370  14160.340465   5662.224525   -470.724515                    
V 24   3526.145051   7618.361013 -29782.554192      0.033778                    
P 25  16472.182198  -7121.590788  19136.693999    497.715136                    
V 25  -5717.779496  24587.441393  14076.908599     -0.004805                    
P 26   2980.085608 -25912.058183  -3925.550420    -20.938174                    
V 26   5033.805001  -3810.053836  30765.266377     -0.144738                    
P 27  -7419.664567 -13936.138628 -21709.349014    -33.875465                    
V 27  26106.173378  -6071.380788  -4665.839903      0.003817                    
P 28   1745.748062 -17893.073015  19536.646804   -517.047189                    
V 28  18094.482227  17059.706920  14000.132398     -0.103928                    
P 29  26334.838049  -3919.268658   -483.637763   -553.210627                    
V 29    886.784340   2373.145009  31835.598145      0.032437                    
P 30  -9262.244056  12946.728069 -21087.103875   -254.412663                    
V 30 -18756.409222 -19783.120416  -4148.045630      0.082157                    
P 31  -6668.122458 -21844.666324  12994.636205   -219.343687                    
V 31  13228.446876  11122.593156  25370.255826      0.007384                    
P 32  13243.512264 -15298.461320  17324.519726   -553.775634                    
V 32  21484.260456  -3048.290370 -19569.948080      0.063329                    
EOF
